NORAD_CAT_ID,OBJECT_NAME,OBJECT_TYPE,EPOCH,MEAN_MOTION,ECCENTRICITY,INCLINATION,RA_OF_ASC_NODE,ARG_OF_PERICENTER,MEAN_ANOMALY,BSTAR,MEAN_MOTION_DOT,MEAN_MOTION_DDOT,TLE_LINE0,TLE_LINE1,TLE_LINE2,SEMIMAJOR_AXIS,PERIOD,APOGEE,PERIGEE,DECAYED
51889.0,STARLINK-3547,PAYLOAD,2023-04-13 07:36:20,15.08839854,0.0001201,53.2171,83.8065,92.6854,267.4275,8.9905e-06,-1.45e-06,0.0,0 STARLINK-3547,1 51889U 22022AP  23103.31690060 -.00000145  00000-0  89905-5 0  9990,2 51889  53.2171  83.8065 0001201  92.6854 267.4275 15.08839854 63014,6917.881,95.438,540.577,538.915,0.0
51889.0,STARLINK-3547,PAYLOAD,2023-04-13 15:33:15,15.08841386,0.0001268,53.2169,82.3185,88.7746,271.3391,3.1784e-05,2.18e-06,0.0,0 STARLINK-3547,1 51889U 22022AP  23103.64809963  .00000218  00000-0  31784-4 0  9991,2 51889  53.2169  82.3185 0001268  88.7746 271.3391 15.08841386 63068,6917.876,95.437,540.618,538.864,0.0
51889.0,STARLINK-3547,PAYLOAD,2023-04-14 09:02:30,15.08843696,0.0001268,53.2168,79.0472,88.5755,271.5382,9.8757e-05,1.284e-05,0.0,0 STARLINK-3547,1 51889U 22022AP  23104.37673983  .00001284  00000-0  98757-4 0  9990,2 51889  53.2168  79.0472 0001268  88.5755 271.5382 15.08843696 63177,6917.869,95.437,540.611,538.857,0.0
51889.0,STARLINK-3547,PAYLOAD,2023-04-15 07:17:54,15.08847196,0.0001129,53.2164,74.8841,94.9467,265.1654,0.00010267,1.347e-05,0.0,0 STARLINK-3547,1 51889U 22022AP  23105.30409852  .00001347  00000-0  10267-3 0  9995,2 51889  53.2164  74.8841 0001129  94.9467 265.1654 15.08847196 63319,6917.858,95.437,540.504,538.942,0.0
51889.0,STARLINK-3547,PAYLOAD,2023-04-15 15:14:49,15.08847258,0.0001205,53.2166,73.4,84.1135,275.9994,0.00010902,1.448e-05,0.0,0 STARLINK-3547,1 51889U 22022AP  23105.63529839  .00001448  00000-0  10902-3 0  9997,2 51889  53.2166  73.4000 0001205  84.1135 275.9994 15.08847258 63361,6917.858,95.437,540.557,538.89,0.0
51889.0,STARLINK-3547,PAYLOAD,2023-04-16 07:08:40,15.08852389,0.0001086,53.2158,70.4231,100.5358,259.5756,8.7383e-05,1.104e-05,0.0,0 STARLINK-3547,1 51889U 22022AP  23106.29769332  .00001104  00000-0  87383-4 0  9991,2 51889  53.2158  70.4231 0001086 100.5358 259.5756 15.08852389 63468,6917.843,95.437,540.459,538.956,0.0
51889.0,STARLINK-3547,PAYLOAD,2023-04-16 21:27:09,15.08836318,0.0001177,53.2167,67.7476,95.9557,264.157,5.1912e-05,5.38e-06,0.0,0 STARLINK-3547,1 51889U 22022AP  23106.89386539  .00000538  00000-0  51912-4 0  9990,2 51889  53.2167  67.7476 0001177  95.9557 264.1570 15.08836318 63557,6917.892,95.438,540.571,538.942,0.0
51889.0,STARLINK-3547,PAYLOAD,2023-04-17 03:48:42,15.08840142,0.0001251,53.2161,66.5591,103.332,256.7811,1.7475e-05,-1e-07,0.0,0 STARLINK-3547,1 51889U 22022AP  23107.15882194 -.00000010  00000-0  17475-4 0  9990,2 51889  53.2161  66.5591 0001251 103.3320 256.7811 15.08840142 63590,6917.88,95.438,540.61,538.88,0.0
51889.0,STARLINK-3547,PAYLOAD,2023-04-17 06:59:28,15.08842005,0.0001181,53.2158,65.9629,104.6957,255.4166,3.7609e-05,3.11e-06,0.0,0 STARLINK-3547,1 51889U 22022AP  23107.29130021  .00000311  00000-0  37609-4 0  9994,2 51889  53.2158  65.9629 0001181 104.6957 255.4166 15.08842005 63615,6917.874,95.437,540.556,538.922,0.0
51889.0,STARLINK-3547,PAYLOAD,2023-04-18 06:50:15,15.08844232,0.0001228,53.2166,61.5028,103.7259,256.387,5.574e-05,5.99e-06,0.0,0 STARLINK-3547,1 51889U 22022AP  23108.28490201  .00000599  00000-0  55740-4 0  9997,2 51889  53.2166  61.5028 0001228 103.7259 256.3870 15.08844232 63768,6917.867,95.437,540.582,538.883,0.0
51889.0,STARLINK-3547,PAYLOAD,2023-04-18 21:08:44,15.0883232,0.0001353,53.216,58.8257,108.9974,251.1165,6.3162e-05,7.17e-06,0.0,0 STARLINK-3547,1 51889U 22022AP  23108.88107187  .00000717  00000-0  63162-4 0  9990,2 51889  53.2160  58.8257 0001353 108.9974 251.1165 15.08832320 63850,6917.904,95.438,540.705,538.833,0.0
51889.0,STARLINK-3547,PAYLOAD,2023-04-19 05:05:40,15.08838594,0.0001279,53.216,57.3408,109.0621,251.051,0.00015815,2.23e-05,0.0,0 STARLINK-3547,1 51889U 22022AP  23109.21227012  .00002230  00000-0  15815-3 0  9991,2 51889  53.2160  57.3408 0001279 109.0621 251.0510 15.08838594 63908,6917.885,95.438,540.634,538.865,0.0
51889.0,STARLINK-3547,PAYLOAD,2023-04-20 06:31:50,15.08848351,0.0001127,53.2171,52.5819,100.6302,259.4817,0.00020373,2.957e-05,0.0,0 STARLINK-3547,1 51889U 22022AP  23110.27210737  .00002957  00000-0  20373-3 0  9996,2 51889  53.2171  52.5819 0001127 100.6302 259.4817 15.08848351 64060,6917.855,95.437,540.5,538.94,0.0
51889.0,STARLINK-3547,PAYLOAD,2023-04-21 04:47:14,15.08834432,0.0001315,53.2174,48.4186,84.4824,275.6318,1.2688e-05,-8.6e-07,0.0,0 STARLINK-3547,1 51889U 22022AP  23111.19947837 -.00000086  00000-0  12688-4 0  9999,2 51889  53.2174  48.4186 0001315  84.4824 275.6318 15.08834432 64208,6917.897,95.438,540.672,538.853,0.0
51889.0,STARLINK-3547,PAYLOAD,2023-04-22 01:27:14,15.08851718,0.0001188,53.2176,44.5519,91.7413,268.3715,0.00020731,3.014e-05,0.0,0 STARLINK-3547,1 51889U 22022AP  23112.06058942  .00003014  00000-0  20731-3 0  9996,2 51889  53.2176  44.5519 0001188  91.7413 268.3715 15.08851718 64330,6917.845,95.437,540.531,538.888,0.0
51889.0,STARLINK-3547,PAYLOAD,2023-04-22 04:38:00,15.08861061,0.0001145,53.2174,43.9577,83.2533,276.8589,0.00028975,4.329e-05,0.0,0 STARLINK-3547,1 51889U 22022AP  23112.19306423  .00004329  00000-0  28975-3 0  9998,2 51889  53.2174  43.9577 0001145  83.2533 276.8589 15.08861061 64354,6917.816,95.436,540.473,538.889,0.0
51889.0,STARLINK-3547,PAYLOAD,2023-04-23 04:28:47,15.0886094,0.0001283,53.2173,39.4985,85.0927,275.0212,0.00043317,6.617e-05,0.0,0 STARLINK-3547,1 51889U 22022AP  23113.18666456  .00006617  00000-0  43317-3 0  9992,2 51889  53.2173  39.4985 0001283  85.0927 275.0212 15.08860940 64502,6917.816,95.436,540.569,538.794,0.0
51889.0,STARLINK-3547,PAYLOAD,2023-04-24 01:08:48,15.08851906,0.00014,53.2159,35.631,109.8882,250.2261,0.00042357,6.462e-05,0.0,0 STARLINK-3547,1 51889U 22022AP  23114.04778455  .00006462  00000-0  42357-3 0  9992,2 51889  53.2159  35.6310 0001400 109.8882 250.2261 15.08851906 64637,6917.844,95.437,540.677,538.74,0.0
51889.0,STARLINK-3547,PAYLOAD,2023-04-24 23:24:10,15.0888374,0.0001401,53.218,31.4714,103.9009,256.2139,0.00089422,0.00013989,0.0,0 STARLINK-3547,1 51889U 22022AP  23114.97512522  .00013989  00000-0  89422-3 0  9991,2 51889  53.2180  31.4714 0001401 103.9009 256.2139 15.08883740 64776,6917.747,95.435,540.581,538.643,0.0
51889.0,STARLINK-3547,PAYLOAD,2023-04-26 05:36:33,15.08778345,0.0001389,53.2179,25.8228,99.0969,261.018,-0.00097494,-0.00015744,0.0,0 STARLINK-3547,1 51889U 22022AP  23116.23372385 -.00015744  00000-0 -97494-3 0  9994,2 51889  53.2179  25.8228 0001389  99.0969 261.0180 15.08778345 64961,6918.069,95.441,540.895,538.973,0.0
51889.0,STARLINK-3547,PAYLOAD,2023-04-26 18:19:39,15.08813986,0.0001661,53.2171,23.444,125.8441,234.2706,0.00054771,8.433e-05,0.0,0 STARLINK-3547,1 51889U 22022AP  23116.76365223  .00008433  00000-0  54771-3 0  9991,2 51889  53.2171  23.4440 0001661 125.8441 234.2706 15.08813986 65046,6917.96,95.439,540.974,538.676,0.0
51889.0,STARLINK-3547,PAYLOAD,2023-04-27 00:41:11,15.08830984,0.000166,53.2183,22.2585,122.539,237.5762,0.00078611,0.00012242,0.0,0 STARLINK-3547,1 51889U 22022AP  23117.02861101  .00012242  00000-0  78611-3 0  9999,2 51889  53.2183  22.2585 0001660 122.5390 237.5762 15.08830984 65081,6917.908,95.438,540.921,538.625,0.0
51889.0,STARLINK-3547,PAYLOAD,2023-04-28 03:42:43,15.08875973,0.0001579,53.2173,17.1985,110.555,249.5612,0.00078432,0.00012229,0.0,0 STARLINK-3547,1 51889U 22022AP  23118.15467472  .00012229  00000-0  78432-3 0  9993,2 51889  53.2173  17.1985 0001579 110.5550 249.5612 15.08875973 65254,6917.77,95.435,540.728,538.543,0.0
51889.0,STARLINK-3547,PAYLOAD,2023-04-28 10:04:16,15.08850172,0.0002243,53.2176,16.0084,102.11,258.0144,6.7785e-05,7.91e-06,0.0,0 STARLINK-3547,1 51889U 22022AP  23118.41963745  .00000791  00000-0  67785-4 0  9997,2 51889  53.2176  16.0084 0002243 102.1100 258.0144 15.08850172 65295,6917.849,95.437,541.266,538.163,0.0
51889.0,STARLINK-3547,PAYLOAD,2023-04-28 21:11:58,15.08843394,0.000144,53.2169,13.9277,100.5927,259.5227,-0.00017133,-3.014e-05,0.0,0 STARLINK-3547,1 51889U 22022AP  23118.88331632 -.00003014  00000-0 -17133-3 0  9996,2 51889  53.2169  13.9277 0001440 100.5927 259.5227 15.08843394 65368,6917.87,95.437,540.731,538.739,0.0
51889.0,STARLINK-3547,PAYLOAD,2023-04-29 00:22:44,15.08843588,0.0001569,53.2181,13.3352,105.9034,254.2131,-0.00013006,-2.358e-05,0.0,0 STARLINK-3547,1 51889U 22022AP  23119.01579695 -.00002358  00000-0 -13006-3 0  9990,2 51889  53.2181  13.3352 0001569 105.9034 254.2131 15.08843588 65383,6917.869,95.437,540.82,538.649,0.0
51889.0,STARLINK-3547,PAYLOAD,2023-04-30 00:13:30,15.08866895,0.0001211,53.2174,8.8724,106.05,254.0626,0.00075355,0.00011734,0.0,0 STARLINK-3547,1 51889U 22022AP  23120.00938523  .00011734  00000-0  75355-3 0  9991,2 51889  53.2174   8.8724 0001211 106.0500 254.0626 15.08866895 65531,6917.798,95.436,540.501,538.825,0.0
51889.0,STARLINK-3547,PAYLOAD,2023-04-30 20:53:32,15.08836322,0.0001318,53.217,5.0102,109.987,250.1265,0.00018102,2.594e-05,0.0,0 STARLINK-3547,1 51889U 22022AP  23120.87051470  .00002594  00000-0  18102-3 0  9994,2 51889  53.2170   5.0102 0001318 109.9870 250.1265 15.08836322 65668,6917.892,95.438,540.668,538.845,0.0
51889.0,STARLINK-3547,PAYLOAD,2023-04-30 22:28:55,15.08835484,0.0001306,53.217,4.7097,128.109,232.002,0.00020041,2.903e-05,0.0,0 STARLINK-3547,1 51889U 22022AP  23120.93675392  .00002903  00000-0  20041-3 0  9995,2 51889  53.2170   4.7097 0001306 128.1090 232.0020 15.08835484 65678,6917.894,95.438,540.663,538.856,0.0
51889.0,STARLINK-3547,PAYLOAD,2023-05-01 22:19:43,15.08848242,0.0001311,53.2173,0.2508,95.9868,264.1274,0.00068857,0.0001069,0.0,0 STARLINK-3547,1 51889U 22022AP  23121.93035900  .00010690  00000-0  68857-3 0  9990,2 51889  53.2173   0.2508 0001311  95.9868 264.1274 15.08848242 65829,6917.855,95.437,540.627,538.813,0.0
